{
  "type": "FeatureCollection",
  "features": [
    {
      "type": "Feature",
      "properties": {
        "norad_id": 43603,
        "name": "BEIDOU-3 M11 (C25)",
        "group": "beidou",
        "lat": -11.531627267742676,
        "lon": 16.16383225144927,
        "alt_km": 21544.600271623207,
        "timestamp": "2025-12-02T06:27:53.279024+00:00",
        "meta_object_name": "BEIDOU-3 M11 (C25)",
        "meta_object_id": "2018-067B",
        "meta_epoch": "2025-11-29T19:57:56.721600",
        "meta_mean_motion": 1.86227148,
        "meta_eccentricity": 0.00055574,
        "meta_inclination": 54.1805,
        "meta_ra_of_asc_node": 187.7656,
        "meta_arg_of_pericenter": 35.6802,
        "meta_mean_anomaly": 324.4454,
        "meta_ephemeris_type": 0,
        "meta_classification_type": "U",
        "meta_norad_cat_id": 43603,
        "meta_element_set_no": 999,
        "meta_rev_at_epoch": 4943,
        "meta_bstar": 0,
        "meta_mean_motion_dot": 1.1e-06,
        "meta_mean_motion_ddot": 0,
        "tle_line1": "1 43603U 18067B   25333.83190650  .00000110  00000+0  00000+0 0  9996",
        "tle_line2": "2 43603  54.1805 187.7656 0005557  35.6802 324.4454  1.86227148 49432"
      },
      "geometry": {
        "type": "Point",
        "coordinates": [
          16.16383225144927,
          -11.531627267742676
        ]
      }
    },
    {
      "type": "Feature",
      "properties": {
        "norad_id": 43622,
        "name": "BEIDOU-3 M13 (C32)",
        "group": "beidou",
        "lat": -34.82727012929858,
        "lon": -83.3825166048363,
        "alt_km": 21528.538791772804,
        "timestamp": "2025-12-02T06:27:53.279035+00:00",
        "meta_object_name": "BEIDOU-3 M13 (C32)",
        "meta_object_id": "2018-072A",
        "meta_epoch": "2025-12-01T09:35:01.762080",
        "meta_mean_motion": 1.86230738,
        "meta_eccentricity": 0.00055646,
        "meta_inclination": 56.4493,
        "meta_ra_of_asc_node": 69.1961,
        "meta_arg_of_pericenter": 298.732,
        "meta_mean_anomaly": 61.2159,
        "meta_ephemeris_type": 0,
        "meta_classification_type": "U",
        "meta_norad_cat_id": 43622,
        "meta_element_set_no": 999,
        "meta_rev_at_epoch": 4897,
        "meta_bstar": 0,
        "meta_mean_motion_dot": -4.1e-07,
        "meta_mean_motion_ddot": 0,
        "tle_line1": "1 43622U 18072A   25335.39932595 -.00000041  00000+0  00000+0 0  9992",
        "tle_line2": "2 43622  56.4493  69.1961 0005564 298.7320  61.2159  1.86230738 48973"
      },
      "geometry": {
        "type": "Point",
        "coordinates": [
          -83.3825166048363,
          -34.82727012929858
        ]
      }
    },
    {
      "type": "Feature",
      "properties": {
        "norad_id": 43623,
        "name": "BEIDOU-3 M14 (C33)",
        "group": "beidou",
        "lat": -37.21050010914125,
        "lon": 38.95343636311025,
        "alt_km": 21524.813989763934,
        "timestamp": "2025-12-02T06:27:53.279046+00:00",
        "meta_object_name": "BEIDOU-3 M14 (C33)",
        "meta_object_id": "2018-072B",
        "meta_epoch": "2025-12-01T19:14:30.967584",
        "meta_mean_motion": 1.86230723,
        "meta_eccentricity": 0.0003032,
        "meta_inclination": 56.4513,
        "meta_ra_of_asc_node": 69.1766,
        "meta_arg_of_pericenter": 336.0963,
        "meta_mean_anomaly": 23.8927,
        "meta_ephemeris_type": 0,
        "meta_classification_type": "U",
        "meta_norad_cat_id": 43623,
        "meta_element_set_no": 999,
        "meta_rev_at_epoch": 4897,
        "meta_bstar": 0,
        "meta_mean_motion_dot": -4.3e-07,
        "meta_mean_motion_ddot": 0,
        "tle_line1": "1 43623U 18072B   25335.80174731 -.00000043  00000+0  00000+0 0  9991",
        "tle_line2": "2 43623  56.4513  69.1766 0003032 336.0963  23.8927  1.86230723 48978"
      },
      "geometry": {
        "type": "Point",
        "coordinates": [
          38.95343636311025,
          -37.21050010914125
        ]
      }
    },
    {
      "type": "Feature",
      "properties": {
        "norad_id": 43647,
        "name": "BEIDOU-3 M16 (C35)",
        "group": "beidou",
        "lat": -22.13033152389096,
        "lon": 143.8831836651595,
        "alt_km": 21549.933616368577,
        "timestamp": "2025-12-02T06:27:53.279057+00:00",
        "meta_object_name": "BEIDOU-3 M16 (C35)",
        "meta_object_id": "2018-078A",
        "meta_epoch": "2025-11-30T21:15:37.253376",
        "meta_mean_motion": 1.86232146,
        "meta_eccentricity": 0.0006928,
        "meta_inclination": 54.273,
        "meta_ra_of_asc_node": 306.9358,
        "meta_arg_of_pericenter": 18.2281,
        "meta_mean_anomaly": 341.7905,
        "meta_ephemeris_type": 0,
        "meta_classification_type": "U",
        "meta_norad_cat_id": 43647,
        "meta_element_set_no": 999,
        "meta_rev_at_epoch": 4846,
        "meta_bstar": 0,
        "meta_mean_motion_dot": -5.5e-07,
        "meta_mean_motion_ddot": 0,
        "tle_line1": "1 43647U 18078A   25334.88584784 -.00000055  00000+0  00000+0 0  9996",
        "tle_line2": "2 43647  54.2730 306.9358 0006928  18.2281 341.7905  1.86232146 48462"
      },
      "geometry": {
        "type": "Point",
        "coordinates": [
          143.8831836651595,
          -22.13033152389096
        ]
      }
    },
    {
      "type": "Feature",
      "properties": {
        "norad_id": 43648,
        "name": "BEIDOU-3 M15 (C34)",
        "group": "beidou",
        "lat": 44.05597368534623,
        "lon": 82.73709734761783,
        "alt_km": 21525.02578341698,
        "timestamp": "2025-12-02T06:27:53.279069+00:00",
        "meta_object_name": "BEIDOU-3 M15 (C34)",
        "meta_object_id": "2018-078B",
        "meta_epoch": "2025-12-01T00:21:40.976640",
        "meta_mean_motion": 1.86232,
        "meta_eccentricity": 0.0003569,
        "meta_inclination": 54.2686,
        "meta_ra_of_asc_node": 306.9322,
        "meta_arg_of_pericenter": 17.0419,
        "meta_mean_anomaly": 342.9634,
        "meta_ephemeris_type": 0,
        "meta_classification_type": "U",
        "meta_norad_cat_id": 43648,
        "meta_element_set_no": 999,
        "meta_rev_at_epoch": 4848,
        "meta_bstar": 0,
        "meta_mean_motion_dot": -5.6e-07,
        "meta_mean_motion_ddot": 0,
        "tle_line1": "1 43648U 18078B   25335.01505760 -.00000056  00000+0  00000+0 0  9991",
        "tle_line2": "2 43648  54.2686 306.9322 0003569  17.0419 342.9634  1.86232000 48485"
      },
      "geometry": {
        "type": "Point",
        "coordinates": [
          82.73709734761783,
          44.05597368534623
        ]
      }
    },
    {
      "type": "Feature",
      "properties": {
        "norad_id": 43683,
        "name": "BEIDOU-3 G1 (C59)",
        "group": "beidou",
        "lat": -1.0962320634885088,
        "lon": -51.65706092234689,
        "alt_km": 35792.76748732056,
        "timestamp": "2025-12-02T06:27:53.279080+00:00",
        "meta_object_name": "BEIDOU-3 G1 (C59)",
        "meta_object_id": "2018-085A",
        "meta_epoch": "2025-12-01T23:02:32.785152",
        "meta_mean_motion": 1.00274254,
        "meta_eccentricity": 0.0002122,
        "meta_inclination": 2.5784,
        "meta_ra_of_asc_node": 103.2993,
        "meta_arg_of_pericenter": 61.0214,
        "meta_mean_anomaly": 32.4115,
        "meta_ephemeris_type": 0,
        "meta_classification_type": "U",
        "meta_norad_cat_id": 43683,
        "meta_element_set_no": 999,
        "meta_rev_at_epoch": 2608,
        "meta_bstar": 0,
        "meta_mean_motion_dot": -2.55e-06,
        "meta_mean_motion_ddot": 0,
        "tle_line1": "1 43683U 18085A   25335.96010168 -.00000255  00000+0  00000+0 0  9996",
        "tle_line2": "2 43683   2.5784 103.2993 0002122  61.0214  32.4115  1.00274254 26087"
      },
      "geometry": {
        "type": "Point",
        "coordinates": [
          -51.65706092234689,
          -1.0962320634885088
        ]
      }
    },
    {
      "type": "Feature",
      "properties": {
        "norad_id": 43706,
        "name": "BEIDOU-3 M17 (C36)",
        "group": "beidou",
        "lat": 11.909797155142316,
        "lon": -162.2507554295465,
        "alt_km": 21520.54507408943,
        "timestamp": "2025-12-02T06:27:53.279092+00:00",
        "meta_object_name": "BEIDOU-3 M17 (C36)",
        "meta_object_id": "2018-093A",
        "meta_epoch": "2025-11-30T05:23:59.265600",
        "meta_mean_motion": 1.86228182,
        "meta_eccentricity": 0.00063751,
        "meta_inclination": 54.1727,
        "meta_ra_of_asc_node": 189.0472,
        "meta_arg_of_pericenter": 306.0351,
        "meta_mean_anomaly": 138.1008,
        "meta_ephemeris_type": 0,
        "meta_classification_type": "U",
        "meta_norad_cat_id": 43706,
        "meta_element_set_no": 999,
        "meta_rev_at_epoch": 4783,
        "meta_bstar": 0,
        "meta_mean_motion_dot": 1.11e-06,
        "meta_mean_motion_ddot": 0,
        "tle_line1": "1 43706U 18093A   25334.22499150  .00000111  00000+0  00000+0 0  9991",
        "tle_line2": "2 43706  54.1727 189.0472 0006375 306.0351 138.1008  1.86228182 47839"
      },
      "geometry": {
        "type": "Point",
        "coordinates": [
          -162.2507554295465,
          11.909797155142316
        ]
      }
    }
  ]
}